ONEWEB-0055             
1 45443U 20020V   21022.00001157  .00043062  00000-0  12093+0 0  9994
2 45443  87.8833  53.1317 0001906  97.5276 310.1269 13.11400525  1758
ONEWEB-0093             
1 45444U 20020W   21022.00001157  .00021583  00000-0  60720-1 0  9991
2 45444  87.8851  53.1801 0003576  30.2746 201.8131 13.11415202  1716
ONEWEB-0029             
1 45445U 20020X   21022.00001157  .00043219  00000-0  12136+0 0  9998
2 45445  87.8862  53.1599 0001835  93.5266 321.5404 13.11405009  1704
ONEWEB-0068             
1 45446U 20020Y   21022.00001157  .00042214  00000-0  11857+0 0  9992
2 45446  87.8848  53.1797 0001683 118.2038 142.5974 13.11393908  1710
ONEWEB-0046             
1 45447U 20020Z   21022.00001157  .00042114  00000-0  11829+0 0  9991
2 45447  87.8848  53.1822 0001566  96.9096 178.5601 13.11394728  1690
ONEWEB-0063             
1 45448U 20020AA  21022.00001157  .00043476  00000-0  12208+0 0  9996
2 45448  87.8857  53.2019 0001081  93.1197 336.4493 13.11405924  1722
ONEWEB-0019             
1 45449U 20020AB  21022.00001157  .00042256  00000-0  11869+0 0  9994
2 45449  87.8853  53.1517 0001854  94.4236 159.0843 13.11392193  1694
ONEWEB-0094             
1 45450U 20020AC  21022.00001157  .00042832  00000-0  43372-2 0  9993
2 45450  87.5765  42.6120 0024386 274.1030  42.9410 14.90532565  1745
ONEWEB-0087             
1 45451U 20020AD  21022.00001157  .00042966  00000-0  12065+0 0  9994
2 45451  87.8864  53.1779 0001820  93.8601 306.4636 13.11407125  1703
ONEWEB-0082             
1 45452U 20020AE  21022.00001157  .00042812  00000-0  12023+0 0  9999
2 45452  87.8844  53.1545 0001800 103.4844 289.5023 13.11400569  1726
ONEWEB-0050             
1 45453U 20020AF  21022.00001157  .00042874  00000-0  38981-2 0  9992
2 45453  87.5408  41.5537 0023374 269.2995 319.8338 14.94827071  1763
ONEWEB-0034             
1 45454U 20020AG  21022.00001157  .00042126  00000-0  11833+0 0  9997
2 45454  87.8846  53.1744 0001441  93.4008 240.7805 13.11389998  1697
ONEWEB-0060             
1 45455U 20020AH  21022.00001157  .00042035  00000-0  11807+0 0  9998
2 45455  87.8848  53.1648 0001669  97.0565 207.7907 13.11393332  1696
ONEWEB-0086             
1 45456U 20020AJ  21022.00001157  .00042423  00000-0  11915+0 0  9990
2 45456  87.8851  53.1646 0001565  96.3495 142.4017 13.11397430  1698
ONEWEB-0088             
1 45457U 20020AK  21022.00001157  .00042796  00000-0  12021+0 0  9993
2 45457  87.8843  53.2010 0001487  95.9071 230.9319 13.11387943  1724
ONEWEB-0102             
1 47258U 20100A   21021.91667824 -.01361360  00000-0 -11075+0 0  9993
2 47258  87.4524  27.6058 0010185 144.2204 340.4708 15.02774464  1779
ONEWEB-0109             
1 47259U 20100B   21021.91667824 -.01377014  00000-0 -16659+0 0  9990
2 47259  87.3414  27.7052 0009787 142.0947 312.0996 14.87331610  1811
ONEWEB-0110             
1 47260U 20100C   21021.91667824 -.01380410  00000-0 -11475+0 0  9997
2 47260  87.4461  27.6011 0009688 142.8938 304.9868 15.02012558  1776
ONEWEB-0111             
1 47261U 20100D   21021.91667824 -.01328182  00000-0 -18753+0 0  9992
2 47261  87.3149  27.7290 0010049 144.4038 270.8874 14.80314311  1811
ONEWEB-0114             
1 47262U 20100E   21021.91667824 -.01339727  00000-0 -19020+0 0  9998
2 47262  87.2924  27.7062 0010504 135.3292 217.7396 14.80106142  1759
ONEWEB-0117             
1 47263U 20100F   21021.91667824 -.01331126  00000-0 -17708+0 0  9995
2 47263  87.3246  27.7025 0011535 152.2935 138.1165 14.83309478  1765
ONEWEB-0118             
1 47264U 20100G   21021.91667824 -.01386665  00000-0 -10563+0 0  9996
2 47264  87.4616  27.5726 0013422 140.9131 160.8593 15.05240541  1771
ONEWEB-0119             
1 47265U 20100H   21021.91667824 -.01385056  00000-0 -11701+0 0  9995
2 47265  87.4361  27.6003 0013153 138.3634 164.2069 15.01363938  1800
ONEWEB-0120             
1 47266U 20100J   21021.91667824 -.01367287  00000-0 -10892+0 0  9992
2 47266  87.4529  27.5922 0010650 145.4621  28.6689 15.03569977  1804
ONEWEB-0121             
1 47267U 20100K   21021.91667824 -.01307969  00000-0 -17170+0 0  9990
2 47267  87.3314  27.7181 0012530 149.3876 191.0802 14.83782584  1810
ONEWEB-0122             
1 47268U 20100L   21021.91667824 -.01329810  00000-0 -19256+0 0  9997
2 47268  87.3059  27.7370 0009702 140.3352 180.2200 14.79263577  1750
ONEWEB-0123             
1 47269U 20100M   21021.91667824 -.01395487  00000-0 -12142+0 0  9998
2 47269  87.4369  27.6151 0009022 139.9978 223.9457 15.00327210  1787
ONEWEB-0124             
1 47270U 20100N   21021.91667824 -.01414406  00000-0 -16961+0 0  9996
2 47270  87.4191  27.7183 0010791 130.9756 219.7827 14.87224766  1777
ONEWEB-0125             
1 47271U 20100P   21021.82158404 -.00434200  00000-0 -40131-1 0  9997
2 47271  87.3995  27.6781 0010928 127.8461 232.3761 14.96990862  5232
ONEWEB-0126             
1 47272U 20100Q   21021.91667824 -.01373614  00000-0 -11073+0 0  9992
2 47272  87.4502  27.5989 0011406 129.4696 294.8443 15.03129394  1753
ONEWEB-0127             
1 47273U 20100R   21021.91667824 -.01369433  00000-0 -10464+0 0  9990
2 47273  87.4585  27.5898 0013073 142.2377 131.0435 15.05092310  1757
ONEWEB-0128             
1 47274U 20100S   21021.91667824 -.01352310  00000-0 -93500-1 0  9991
2 47274  87.4587  27.5344 0014352 121.9389  30.4865 15.08710626  1753
ONEWEB-0129             
1 47275U 20100T   21021.91667824 -.01374197  00000-0 -13749+0 0  9994
2 47275  87.4165  27.6557 0012339 147.2818  49.4109 14.94845157  1768
ONEWEB-0130             
1 47276U 20100U   21021.91667824 -.01390922  00000-0 -12802+0 0  9998
2 47276  87.4507  27.6489 0009920 128.4039 106.1277 14.98154666  1759
ONEWEB-0131             
1 47277U 20100V   21021.91667824 -.01400468  00000-0 -12062+0 0  9994
2 47277  87.4354  27.6046 0009032 137.5926 251.8458 15.00725663  1786
ONEWEB-0132             
1 47278U 20100W   21021.91667824 -.01356671  00000-0 -15741+0 0  9998
2 47278  87.3553  27.6816 0009314 147.2901   2.1600 14.88970655  1780
ONEWEB-0133             
1 47279U 20100X   21021.91667824 -.01373233  00000-0 -10109+0 0  9995
2 47279  87.4748  27.5803 0013900 139.5449 213.5094 15.06467035  1767
ONEWEB-0134             
1 47280U 20100Y   21021.91667824 -.01384054  00000-0 -10886+0 0  9992
2 47280  87.4622  27.5915 0013087 144.7915  81.2188 15.04048900  1810
ONEWEB-0135             
1 47281U 20100Z   21021.91667824 -.01374011  00000-0 -97301-1 0  9994
2 47281  87.4633  27.5423 0014399 123.7601 356.4951 15.07884207  1808
ONEWEB-0136             
1 47282U 20100AA  21021.91667824 -.01394344  00000-0 -12544+0 0  9990
2 47282  87.4352  27.6182 0009613 131.5038 152.8657 14.99042436  1759
ONEWEB-0137             
1 47283U 20100AB  21021.91667824 -.01305620  00000-0 -16084+0 0  9993
2 47283  87.3518  27.7119 0012683 130.9303  60.4535 14.86373180  1795
ONEWEB-0138             
1 47284U 20100AC  21021.91667824 -.01344890  00000-0 -17198+0 0  9993
2 47284  87.3294  27.6562 0012883 142.6664 317.3640 14.84949994  1757
ONEWEB-0139             
1 47285U 20100AD  21021.91667824 -.01356674  00000-0 -10144+0 0  9991
2 47285  87.4705  27.5755 0013900 125.5326 244.4249 15.05854104  1774
ONEWEB-0140             
1 47286U 20100AE  21021.91667824 -.01357310  00000-0 -13654+0 0  9999
2 47286  87.3881  27.6411 0010651 150.2861  15.3559 14.94614647  1769
ONEWEB-0141             
1 47287U 20100AF  21021.91667824 -.01370709  00000-0 -14350+0 0  9991
2 47287  87.3764  27.6487 0013388 134.1575  26.3601 14.93042348  1780
ONEWEB-0142             
1 47288U 20100AG  21021.91667824 -.01384244  00000-0 -12170+0 0  9999
2 47288  87.4423  27.6327 0009246 134.9936 195.9508 14.99901775  1800
ONEWEB-0143             
1 47289U 20100AH  21021.64640761 -.00398159  00000-0 -38094-1 0  9995
2 47289  87.3794  27.7542 0013439 156.8399 203.3440 14.95418325  5203
ONEWEB-0144             
1 47290U 20100AJ  21021.91667824 -.01380905  00000-0 -15342+0 0  9996
2 47290  87.3594  27.6687 0010422 150.6492 118.0233 14.90754627  1747
ONEWEB-0145             
1 47291U 20100AK  21021.91667824 -.01381109  00000-0 -10067+0 0  9993
2 47291  87.4548  27.5486 0014262 125.9066 287.4184 15.06842579  1751
ONEWEB-0146             
1 47292U 20100AL  21021.91667824 -.01385341  00000-0 -13326+0 0  9997
2 47292  87.4108  27.6473 0013685 141.6768 281.3556 14.96382692  1774
ONEWEB-0147             
1 47293U 20100AM  21021.91667824 -.01365271  00000-0 -15220+0 0  9993
2 47293  87.3835  27.6381 0011706 128.5799  11.9596 14.90562204  1751
